STARLINK-1816
1 16714C 20073AW  21326.14585234  .00004454  00000-0  29850-3 0  3268
2 16714  53.0556  83.0863 0001257  80.1236 216.1189 15.06388401    16
